TITAN 4B R/B            
1 26474U 00047B   22315.35987813  .00001790  00000+0  15918-3 0  9994
2 26474  67.9933 180.4191 0058308 309.7713  49.8302 14.97357982210431
ENVISAT                 
1 27386U 02009A   22315.54372472  .00000225  00000+0  87778-4 0  9993
2 27386  98.2028 289.8844 0001310  88.8329  20.5143 14.38183267 84609
IDEFIX & ARIANE 42P R/B 
1 27422U 02021B   22315.44153417  .00000295  00000+0  13208-3 0  9996
2 27422  98.4658 257.1234 0012398 158.3204 201.8506 14.29484720 70458
AQUA                    
1 27424U 02022A   22315.56159903  .00000949  00000+0  21902-3 0  9994
2 27424  98.2622 256.1555 0001833  95.0484 353.0695 14.57462780 91616
CZ-4B R/B               
1 27432U 02024C   22315.56475593  .00000036  00000+0  42417-4 0  9993
2 27432  99.0503 342.6799 0049773 220.5303 252.5822 14.14161336 57616
MIDORI II (ADEOS-II)    
1 27597U 02056A   22315.44409299  .00000291  00000+0  13579-3 0  9996
2 27597  98.6224 257.2030 0000756  23.2783 336.8432 14.27681998 36941
H-2A R/B                
1 27601U 02056E   22315.56566743  .00000268  00000+0  11118-3 0  9994
2 27601  98.1816 313.8805 0071885 181.5000 288.2799 14.32148171 40239
CZ-4B R/B               
1 28059U 03049C   22315.41558118  .00000504  00000+0  13231-3 0  9997
2 28059  98.5335 254.6075 0049581 339.8102  20.1131 14.52884220 10152
CZ-2C R/B               
1 28222U 04012C   22315.55760833  .00004964  00000+0  27274-3 0  9990
2 28222  97.7876 299.3535 0041644 268.4378 206.4437 15.13856563 18485
SL-16 R/B               
1 28353U 04021B   22315.54043625  .00000211  00000+0  13529-3 0  9996
2 28353  70.9999 259.7769 0002983  81.1833 278.9627 14.14281873951147
CZ-4B R/B               
1 28415U 04035C   22315.39087156  .00003621  00000+0  22825-3 0  9997
2 28415  97.4992 352.5927 0048071 235.3934 124.2756 15.08813666995749
CZ-2C R/B               
1 28480U 04046B   22315.55626468  .00000122  00000+0  60590-4 0  9999
2 28480  98.0825 291.8254 0142289 146.0604 214.9783 14.25879982935404
ARIANE 5 R/B            
1 28499U 04049H   22315.59731027  .00000787  00000+0  10313-3 0  9998
2 28499  98.1136  73.8152 0090320 319.7909  57.1824 14.80621699965856
CZ-2D R/B               
1 28738U 05024B   22315.56962663  .00005121  00000+0  27814-3 0  9998
2 28738  97.3532 318.7203 0012206  35.8161 324.3888 15.14879589954010
SUZAKU (ASTRO-EII)      
1 28773U 05025A   22315.49039743  .00009263  00000+0  38052-3 0  9991
2 28773  31.3813  59.5286 0004412  62.9216 297.1882 15.22897999957447
ALOS (DAICHI)           
1 28931U 06002A   22310.47227537 -.00000030  00000+0  29392-5 0  9999
2 28931  97.9551 270.1655 0001426 133.0925 227.0374 14.63410704895190
H-2A R/B                
1 28932U 06002B   22315.55859001  .00003235  00000+0  28759-3 0  9994
2 28932  98.2734   5.9969 0084562 329.9551  29.6830 14.94190837912002
AKARI (ASTRO-F)         
1 28939U 06005A   22315.53035747  .00057994  00000+0  78122-3 0  9995
2 28939  98.1877  48.7878 0056232 108.6193 252.1177 15.55743297915863
CZ-4B R/B               
1 29093U 06015B   22315.55379984  .00060711  00000+0  50755-3 0  9997
2 29093  97.5723 185.9173 0030211   2.4619 357.6785 15.69217053922532
RESURS-DK 1             
1 29228U 06021A   22315.59292229  .00001991  00000+0  15237-3 0  9995
2 29228  69.9350 113.9370 0006011 225.5244 134.5426 15.03627284904492
GENESIS 1               
1 29252U 06029A   22315.38892517  .00006351  00000+0  27523-3 0  9999
2 29252  64.5216 308.1489 0050625 240.7447 118.8612 15.22144323901324
CZ-4B R/B               
1 29507U 06046C   22315.56716698  .00002995  00000+0  22637-3 0  9997
2 29507  97.7143 344.9977 0045329  97.4250 263.2128 15.02320178876957
CZ-2C R/B               
1 31114U 07010B   22315.45631813  .00000096  00000+0  63702-4 0  9998
2 31114  98.2534 118.5131 0058827 228.5140 131.0979 14.19469162807418
COSMO-SKYMED 1          
1 31598U 07023A   22315.50733619  .00000485  00000+0  67403-4 0  9995
2 31598  97.8879 137.0827 0001345  89.8301 270.3036 14.82170248834740
GENESIS 2               
1 31789U 07028A   22315.43851075  .00006192  00000+0  27529-3 0  9996
2 31789  64.4967 351.5484 0058214 292.9044  66.5942 15.20941484848242
COSMOS 2428             
1 31792U 07029A   22315.49723114 -.00000086  00000+0 -20832-4 0  9998
2 31792  70.9525 231.4593 0009921 199.9825 160.0909 14.12599850792617
SL-16 R/B               
1 31793U 07029B   22315.43359083 -.00000150  00000+0 -53442-4 0  9998
2 31793  70.9755 204.0861 0002205 278.6907 254.9010 14.14483995793645
KORONAS-FOTON           
1 33504U 09003A   22315.43881766  .00003766  00000+0  18296-3 0  9993
2 33504  82.4423  69.2183 0019285 119.0475 241.2693 15.17986115760252
H-2A R/B                
1 38341U 12025E   22315.58085356  .00001848  00000+0  21849-3 0  9999
2 38341  98.4822 180.5009 0053305 294.1403  65.4241 14.85056005567482
CUSAT 2 & FALCON 9 R/B  
1 39271U 13055G   22315.56074373  .00027585  00000+0  56268-3 0  9990
2 39271  80.9578  32.4536 0500976  22.7266 339.5285 14.69910436478328
SHIJIAN-16 (SJ-16)      
1 39358U 13057A   22315.51670992  .00001119  00000+0  12950-3 0  9997
2 39358  74.9737 312.4402 0018470 171.4084 188.7434 14.86431727490841
CZ-2C R/B               
1 39364U 13059B   22315.13535660  .00012404  00000+0  36848-3 0  9997
2 39364  97.1405   3.5596 0040649 163.8157 196.4395 15.34070325502672
SL-4 R/B                
1 39679U 14021B   22315.51422028  .00003894  00000+0  19094-3 0  9998
2 39679  51.6143 350.6210 0162395 109.9941 251.8600 15.09810323471323
ALOS-2                  
1 39766U 14029A   22315.50632956 -.00000188  00000+0 -18317-4 0  9998
2 39766  97.9233  50.5287 0001430  95.0052 265.1332 14.79469099457378
CZ-2C R/B               
1 40306U 14071B   22315.50084242  .00118848  00000+0  62437-3 0  9998
2 40306  97.4269 297.8953 0008714 142.4948 217.6929 15.80352965449958
SL-27 R/B               
1 40354U 14084B   22315.56293701  .00008672  00000+0  17519-3 0  9997
2 40354  74.7379   8.7447 0030438 112.5390 247.9051 15.46047660443316
YAOGAN-29               
1 41038U 15069A   22315.50829216  .00000671  00000+0  93628-4 0  9998
2 41038  98.0617 316.4400 0001635  45.4042 314.7310 14.80985325376056
ASTRO-H (HITOMI)        
1 41337U 16012A   22315.37135235  .00002191  00000+0  16605-3 0  9993
2 41337  31.0039 206.8970 0011730 100.9307 259.2648 14.99824782369198
HXMT (HUIYAN)           
1 42758U 17034A   22315.32589998  .00006392  00000+0  38455-3 0  9994
2 42758  43.0168 260.1189 0008217 126.4928  10.0728 15.11387511298399
CZ-2C R/B               
1 43521U 18054D   22315.02168533  .00005177  00000+0  25661-3 0  9996
2 43521  35.1510 169.3997 0078361 301.2491  58.0565 15.14447881241909
AEOLUS                  
1 43600U 18066A   22315.55941271  .00128298  00000+0  49141-3 0  9992
2 43600  96.7335 319.0338 0010735 104.0343 256.2124 15.87017795244457
SAOCOM 1A               
1 43641U 18076A   22315.51579615  .00000650  00000+0  88226-4 0  9992
2 43641  97.8867 140.1219 0001378  81.4490 278.6883 14.82164476221514
H-2A R/B                
1 43682U 18084L   22315.50768613  .00004306  00000+0  29487-3 0  9998
2 43682  98.8958 300.9238 0054732 139.2822 221.2512 15.05541207221432
SAOCOM 1B               
1 46265U 20059A   22315.54694110  .00000588  00000+0  80355-4 0  9997
2 46265  97.8862 139.2127 0001370  82.0173 278.1219 14.82154856118916
CSS (TIANHE)            
1 48274U 21035A   22315.70082348  .00052387  00000+0  63129-3 0  9999
2 48274  41.4794  40.2515 0009769 268.2162 224.1022 15.59882171 87837
2022-019U               
1 51842U 22019U   22315.67755214  .00012781  00000+0  46899-3 0  9991
2 51842  97.5485  34.4618 0066147  32.9576 122.5548 15.26004786 39213
SZ-13 MODULE            
1 52260U 21092C   22315.48859220  .00068646  00000+0  37609-3 0  9997
2 52260  41.4790  24.4339 0010746 106.1168 254.0861 15.78765752 32541
CZ-2C R/B               
1 52794U 22058K   22315.41650867  .00004583  00000+0  25037-3 0  9993
2 52794  50.1721 198.9404 0101373 321.0703  38.2980 15.11916591 24512
